     3.00           N                   E                   RINEX VERSION / TYPE
BRD_USR             ESA                 20190115 031748  UTCPGM / RUN BY / DATE
 GAL   3.6500E+01  1.4844E-01  3.9673E-04  0.0000E+00       IONOSPHERIC CORR
GAUT  2.7939677238E-09-1.776356839E-15 172800 2036 GSTB   0 TIME SYSTEM CORR
GPGA -1.4551915228E-09-1.110223025E-14 172800 2036 GSTB   0 TIME SYSTEM CORR
                                                            END OF HEADER
E19 2019 01 15 00 40 00-9.116483852267E-06 2.273736754432E-13 0.000000000000E+00
     3.600000000000E+01-5.790625000000E+01 3.255135589463E-09-6.798209089953E-01
    -2.710148692131E-06 1.343104522675E-04 8.787959814072E-06 5.440616502762E+03
     1.752000000000E+05 1.862645149231E-09 1.116572120133E+00-1.192092895508E-07
     9.582040068487E-01 1.505937500000E+02 2.392153816797E+00-5.614519581562E-09
    -2.446530479243E-10 2.580000000000E+02 2.036000000000E+03 0.000000000000E+00
     3.120000000000E+00 0.000000000000E+00-8.614733815193E-09 0.000000000000E+00
     1.764000000000E+05 0.000000000000E+00 0.000000000000E+00 0.000000000000E+00
E21 2019 01 15 00 40 00-5.144714377820E-04-1.932676241267E-12 0.000000000000E+00
     3.600000000000E+01 8.093750000000E+01 3.027626112780E-09-2.576690790085E-01
     3.734603524208E-06 4.457484465092E-05 4.408881068230E-06 5.440624227524E+03
     1.752000000000E+05-5.215406417847E-08-3.073409607047E+00-9.313225746155E-09
     9.896608563528E-01 2.622187500000E+02 6.023843365255E-01-5.701308910972E-09
     5.750239520557E-11 2.580000000000E+02 2.036000000000E+03 0.000000000000E+00
     3.120000000000E+00 0.000000000000E+00-2.328306436539E-09 0.000000000000E+00
     1.764000000000E+05 0.000000000000E+00 0.000000000000E+00 0.000000000000E+00
E24 2019 01 14 23 50 00 6.285668408964E-03-1.968203378055E-11 0.000000000000E+00
     3.100000000000E+01 6.403125000000E+01 2.999410651779E-09-2.932809425273E+00
     2.872198820114E-06 4.780865274370E-04 4.490837454796E-06 5.440614906311E+03
     1.722000000000E+05 3.166496753693E-08-3.067326745397E+00-5.774199962616E-08
     9.876653819647E-01 2.575937500000E+02 5.289323301203E-01-5.685951128402E-09
    -1.857220217820E-11 2.580000000000E+02 2.036000000000E+03 0.000000000000E+00
     3.120000000000E+00 0.000000000000E+00 4.260800778866E-08 0.000000000000E+00
     1.764000000000E+05 0.000000000000E+00 0.000000000000E+00 0.000000000000E+00
E25 2019 01 15 00 40 00 1.923621690366E-03-1.131184035330E-11 0.000000000000E+00
     3.600000000000E+01 6.178125000000E+01 3.002982229121E-09-1.439841675939E+00
     2.859160304070E-06 1.765767810866E-04 4.462897777557E-06 5.440624483109E+03
     1.752000000000E+05 5.587935447693E-09-3.073418931686E+00-3.539025783539E-08
     9.896667563014E-01 2.609062500000E+02-1.355433207485E+00-5.662021560211E-09
    -4.643050544549E-12 2.580000000000E+02 2.036000000000E+03 0.000000000000E+00
     3.120000000000E+00 0.000000000000E+00-1.164153218269E-09 0.000000000000E+00
     1.764000000000E+05 0.000000000000E+00 0.000000000000E+00 0.000000000000E+00
E26 2019 01 15 00 40 00 5.018914001994E-03-4.338573944551E-11 0.000000000000E+00
     3.600000000000E+01-3.737500000000E+01 2.780115802982E-09 2.091162411365E-01
    -1.626089215279E-06 3.168589901179E-04 9.626150131226E-06 5.440611480713E+03
     1.752000000000E+05 5.029141902924E-08-9.818887017542E-01 3.911554813385E-08
     9.783438625317E-01 1.427500000000E+02-1.968152941744E+00-5.489157216860E-09
     2.003654888840E-10 2.580000000000E+02 2.036000000000E+03 0.000000000000E+00
     3.120000000000E+00 0.000000000000E+00 1.164153218269E-09 0.000000000000E+00
     1.764000000000E+05 0.000000000000E+00 0.000000000000E+00 0.000000000000E+00
E27 2019 01 15 00 30 00 5.495786899701E-04-7.702283255639E-12 0.000000000000E+00
     3.500000000000E+01 7.721875000000E+01 3.022983062236E-09 1.868712853974E+00
     3.522261977196E-06 1.724335597828E-04 4.256144165993E-06 5.440622547150E+03
     1.746000000000E+05-9.313225746155E-09-3.073390300917E+00-1.862645149231E-08
     9.896335568385E-01 2.628437500000E+02-8.115006405675E-01-5.719523955416E-09
     4.678766317969E-11 2.580000000000E+02 2.036000000000E+03 0.000000000000E+00
     3.120000000000E+00 0.000000000000E+00-2.561137080193E-09 0.000000000000E+00
     1.764000000000E+05 0.000000000000E+00 0.000000000000E+00 0.000000000000E+00
E30 2019 01 15 00 40 00 5.187927687075E-03-3.041122909053E-11 0.000000000000E+00
     3.600000000000E+01 6.881250000000E+01 3.066556305808E-09 1.274420066563E+00
     3.244727849960E-06 3.142567584291E-04 4.306435585022E-06 5.440612928391E+03
     1.752000000000E+05-1.490116119385E-08-3.067399980539E+00 9.313225746155E-09
     9.876494112880E-01 2.604375000000E+02 6.231273328517E-01-5.747739416418E-09
     2.107230631757E-11 2.580000000000E+02 2.036000000000E+03 0.000000000000E+00
     3.120000000000E+00 0.000000000000E+00-3.026798367500E-09 0.000000000000E+00
     1.764000000000E+05 0.000000000000E+00 0.000000000000E+00 0.000000000000E+00
E31 2019 01 15 00 40 00 9.324511629529E-04-9.762857189344E-12 0.000000000000E+00
     3.600000000000E+01 7.021875000000E+01 2.975838241322E-09 3.382522054021E-01
     3.252178430557E-06 2.152741653845E-04 4.347413778305E-06 5.440623283386E+03
     1.752000000000E+05-2.793967723846E-08-3.073442373486E+00 3.539025783539E-08
     9.896363144391E-01 2.605625000000E+02-1.562811934967E+00-5.653806932324E-09
     8.250343659930E-11 2.580000000000E+02 2.036000000000E+03 0.000000000000E+00
     3.120000000000E+00 0.000000000000E+00-2.328306436539E-10 0.000000000000E+00
     1.764000000000E+05 0.000000000000E+00 0.000000000000E+00 0.000000000000E+00
E33 2019 01 15 00 40 00 8.479208336212E-04-1.421085471520E-14 0.000000000000E+00
     3.600000000000E+01-4.600000000000E+01 2.771901175096E-09-1.150328770485E+00
    -2.047047019005E-06 3.703072434291E-04 8.681789040565E-06 5.440596239090E+03
     1.752000000000E+05 3.911554813385E-08-9.908204661638E-01-5.029141902924E-08
     9.852234337563E-01 1.646250000000E+02-1.400106026733E+00-5.448441235161E-09
     1.328626771209E-10 2.580000000000E+02 2.036000000000E+03 0.000000000000E+00
     3.120000000000E+00 5.600000000000E+01-8.149072527885E-09 0.000000000000E+00
     1.764000000000E+05 0.000000000000E+00 0.000000000000E+00 0.000000000000E+00
E36 2019 01 14 23 40 00 7.595901261084E-04-4.419575816428E-12 0.000000000000E+00
     3.000000000000E+01-1.418750000000E+01 2.689754896231E-09 2.443747982358E+00
    -6.761401891708E-07 3.368577454239E-04 8.933246135712E-06 5.440603755951E+03
     1.716000000000E+05-2.421438694000E-08-9.907750513349E-01 6.891787052155E-08
     9.852315939134E-01 1.585312500000E+02-1.511863870102E+00-5.448441235161E-09
     1.964367538078E-10 2.580000000000E+02 2.036000000000E+03 0.000000000000E+00
     3.120000000000E+00 5.600000000000E+01 9.313225746155E-10 0.000000000000E+00
     1.764000000000E+05 0.000000000000E+00 0.000000000000E+00 0.000000000000E+00
E01 2019 01 15 00 20 00-5.209221853875E-04-8.185452315956E-12 0.000000000000E+00
     3.400000000000E+01 7.706250000000E+01 3.009411068336E-09-1.538548603296E-02
     3.607943654060E-06 8.019362576306E-05 4.472211003304E-06 5.440613832474E+03
     1.740000000000E+05 4.656612873077E-08-3.070793840764E+00 1.676380634308E-08
     9.900978431493E-01 2.595937500000E+02-5.899453840161E-01-5.612376635157E-09
     7.107438910502E-11 5.210000000000E+02 2.036000000000E+03 0.000000000000E+00
     3.120000000000E+00 0.000000000000E+00-4.656612873077E-09-5.122274160385E-09
     1.764250000000E+05 0.000000000000E+00 0.000000000000E+00 0.000000000000E+00
E02 2019 01 15 00 40 00 4.336342681199E-05 1.634248292248E-12 0.000000000000E+00
     3.600000000000E+01 5.996875000000E+01 3.036912213869E-09 2.800929581137E+00
     2.896413207054E-06 2.546428004280E-04 4.332512617111E-06 5.440617433548E+03
     1.752000000000E+05-6.146728992462E-08-3.070833626284E+00-2.980232238770E-08
     9.901058672550E-01 2.620937500000E+02-1.176094864272E-01-5.706309119251E-09
     1.785788670980E-11 5.210000000000E+02 2.036000000000E+03 0.000000000000E+00
     3.120000000000E+00 0.000000000000E+00-6.286427378654E-09-7.683411240578E-09
     1.764250000000E+05 0.000000000000E+00 0.000000000000E+00 0.000000000000E+00
E03 2019 01 15 00 00 00-1.222497085109E-04-4.263256414561E-12 0.000000000000E+00
     3.200000000000E+01-3.568750000000E+01 3.334424606455E-09-2.429882422859E+00
    -1.693144440651E-06 2.568721538410E-04 9.482726454735E-06 5.440618577957E+03
     1.728000000000E+05 3.166496753693E-08 1.119833470702E+00 1.117587089539E-08
     9.524310614681E-01 1.323437500000E+02 6.233678877861E-01-5.657021351932E-09
    -2.189376910622E-10 5.210000000000E+02 2.036000000000E+03 0.000000000000E+00
     3.120000000000E+00 0.000000000000E+00-1.862645149231E-09-2.095475792885E-09
     1.764250000000E+05 0.000000000000E+00 0.000000000000E+00 0.000000000000E+00
E04 2019 01 15 00 30 00-2.001931425184E-04-7.858602657507E-12 0.000000000000E+00
     3.500000000000E+01-5.346875000000E+01 3.283351050465E-09-1.364589835570E+00
    -2.436339855194E-06 7.268367335200E-05 8.804723620415E-06 5.440615570068E+03
     1.746000000000E+05-6.146728992462E-08 1.119873676079E+00 2.607703208923E-08
     9.524750382485E-01 1.475312500000E+02 2.141968040675E+00-5.620591263044E-09
    -1.385772008681E-10 5.210000000000E+02 2.036000000000E+03 0.000000000000E+00
     3.120000000000E+00 0.000000000000E+00-7.916241884232E-09-8.847564458847E-09
     1.764250000000E+05 0.000000000000E+00 0.000000000000E+00 0.000000000000E+00
